{
  "type": "FeatureCollection",
  "features": [
    {
      "type": "Feature",
      "properties": {
        "norad_id": 59626,
        "name": "LEGION 2",
        "group": "resource",
        "lat": -19.759143758487966,
        "lon": 53.80580290453995,
        "alt_km": 517.8416985031727,
        "timestamp": "2025-12-02T06:27:52.679011+00:00",
        "meta_object_name": "LEGION 2",
        "meta_object_id": "2024-081B",
        "meta_epoch": "2025-12-01T19:27:56.778912",
        "meta_mean_motion": 15.16318019,
        "meta_eccentricity": 0.0006351,
        "meta_inclination": 97.5235,
        "meta_ra_of_asc_node": 50.6303,
        "meta_arg_of_pericenter": 337.909,
        "meta_mean_anomaly": 22.1868,
        "meta_ephemeris_type": 0,
        "meta_classification_type": "U",
        "meta_norad_cat_id": 59626,
        "meta_element_set_no": 999,
        "meta_rev_at_epoch": 8762,
        "meta_bstar": 0.00028153,
        "meta_mean_motion_dot": 5.391e-05,
        "meta_mean_motion_ddot": 0,
        "tle_line1": "1 59626U 24081B   25335.81107383  .00005391  00000+0  28153-3 0  9991",
        "tle_line2": "2 59626  97.5235  50.6303 0006351 337.9090  22.1868 15.16318019 87629"
      },
      "geometry": {
        "type": "Point",
        "coordinates": [
          53.80580290453995,
          -19.759143758487966
        ]
      }
    },
    {
      "type": "Feature",
      "properties": {
        "norad_id": 60182,
        "name": "ALOS-4 (DAICHI-4)",
        "group": "resource",
        "lat": -52.058897598146714,
        "lon": 81.55581281910118,
        "alt_km": 638.7609501982824,
        "timestamp": "2025-12-02T06:27:52.679021+00:00",
        "meta_object_name": "ALOS-4 (DAICHI-4)",
        "meta_object_id": "2024-123A",
        "meta_epoch": "2025-11-30T09:15:12.370176",
        "meta_mean_motion": 14.79468497,
        "meta_eccentricity": 0.000127,
        "meta_inclination": 97.9232,
        "meta_ra_of_asc_node": 69.4089,
        "meta_arg_of_pericenter": 105.4124,
        "meta_mean_anomaly": 254.7228,
        "meta_ephemeris_type": 0,
        "meta_classification_type": "U",
        "meta_norad_cat_id": 60182,
        "meta_element_set_no": 999,
        "meta_rev_at_epoch": 7648,
        "meta_bstar": -8.429942e-06,
        "meta_mean_motion_dot": -1.14e-06,
        "meta_mean_motion_ddot": 0,
        "tle_line1": "1 60182U 24123A   25334.38555984 -.00000114  00000+0 -84299-5 0  9997",
        "tle_line2": "2 60182  97.9232  69.4089 0001270 105.4124 254.7228 14.79468497 76488"
      },
      "geometry": {
        "type": "Point",
        "coordinates": [
          81.55581281910118,
          -52.058897598146714
        ]
      }
    },
    {
      "type": "Feature",
      "properties": {
        "norad_id": 60452,
        "name": "LEGION 3",
        "group": "resource",
        "lat": -26.769206335709022,
        "lon": -24.06170217169484,
        "alt_km": 531.3458883155345,
        "timestamp": "2025-12-02T06:27:52.679032+00:00",
        "meta_object_name": "LEGION 3",
        "meta_object_id": "2024-146A",
        "meta_epoch": "2025-12-01T19:33:56.647008",
        "meta_mean_motion": 15.15575766,
        "meta_eccentricity": 0.001365,
        "meta_inclination": 45.0024,
        "meta_ra_of_asc_node": 8.6893,
        "meta_arg_of_pericenter": 136.4401,
        "meta_mean_anomaly": 223.7558,
        "meta_ephemeris_type": 0,
        "meta_classification_type": "U",
        "meta_norad_cat_id": 60452,
        "meta_element_set_no": 999,
        "meta_rev_at_epoch": 7207,
        "meta_bstar": 0.00029052,
        "meta_mean_motion_dot": 5.357e-05,
        "meta_mean_motion_ddot": 0,
        "tle_line1": "1 60452U 24146A   25335.81523897  .00005357  00000+0  29052-3 0  9995",
        "tle_line2": "2 60452  45.0024   8.6893 0013650 136.4401 223.7558 15.15575766 72078"
      },
      "geometry": {
        "type": "Point",
        "coordinates": [
          -24.06170217169484,
          -26.769206335709022
        ]
      }
    },
    {
      "type": "Feature",
      "properties": {
        "norad_id": 60453,
        "name": "LEGION 4",
        "group": "resource",
        "lat": -29.96470511991436,
        "lon": 62.79009055807067,
        "alt_km": 518.3986953075109,
        "timestamp": "2025-12-02T06:27:52.679043+00:00",
        "meta_object_name": "LEGION 4",
        "meta_object_id": "2024-146B",
        "meta_epoch": "2025-12-01T18:00:26.100576",
        "meta_mean_motion": 15.1563102,
        "meta_eccentricity": 0.0009836,
        "meta_inclination": 45.0372,
        "meta_ra_of_asc_node": 100.7541,
        "meta_arg_of_pericenter": 254.0592,
        "meta_mean_anomaly": 105.9203,
        "meta_ephemeris_type": 0,
        "meta_classification_type": "U",
        "meta_norad_cat_id": 60453,
        "meta_element_set_no": 999,
        "meta_rev_at_epoch": 7091,
        "meta_bstar": 0.00037776,
        "meta_mean_motion_dot": 7.052e-05,
        "meta_mean_motion_ddot": 0,
        "tle_line1": "1 60453U 24146B   25335.75030209  .00007052  00000+0  37776-3 0  9995",
        "tle_line2": "2 60453  45.0372 100.7541 0009836 254.0592 105.9203 15.15631020 70913"
      },
      "geometry": {
        "type": "Point",
        "coordinates": [
          62.79009055807067,
          -29.96470511991436
        ]
      }
    },
    {
      "type": "Feature",
      "properties": {
        "norad_id": 60989,
        "name": "SENTINEL-2C",
        "group": "resource",
        "lat": 75.2382135104274,
        "lon": -96.22536208156359,
        "alt_km": 780.9869984232455,
        "timestamp": "2025-12-02T06:27:52.679055+00:00",
        "meta_object_name": "SENTINEL-2C",
        "meta_object_id": "2024-157A",
        "meta_epoch": "2025-12-01T19:55:10.634880",
        "meta_mean_motion": 14.30822875,
        "meta_eccentricity": 0.0001151,
        "meta_inclination": 98.5616,
        "meta_ra_of_asc_node": 48.4717,
        "meta_arg_of_pericenter": 102.4214,
        "meta_mean_anomaly": 257.7098,
        "meta_ephemeris_type": 0,
        "meta_classification_type": "U",
        "meta_norad_cat_id": 60989,
        "meta_element_set_no": 999,
        "meta_rev_at_epoch": 6476,
        "meta_bstar": 7.7528e-05,
        "meta_mean_motion_dot": 1.6e-06,
        "meta_mean_motion_ddot": 0,
        "tle_line1": "1 60989U 24157A   25335.82998420  .00000160  00000+0  77528-4 0  9990",
        "tle_line2": "2 60989  98.5616  48.4717 0001151 102.4214 257.7098 14.30822875 64763"
      },
      "geometry": {
        "type": "Point",
        "coordinates": [
          -96.22536208156359,
          75.2382135104274
        ]
      }
    },
    {
      "type": "Feature",
      "properties": {
        "norad_id": 61735,
        "name": "IONOSFERA-M 1",
        "group": "resource",
        "lat": -46.03915804395568,
        "lon": -144.62289590703418,
        "alt_km": 822.7937053661808,
        "timestamp": "2025-12-02T06:27:52.679066+00:00",
        "meta_object_name": "IONOSFERA-M 1",
        "meta_object_id": "2024-199A",
        "meta_epoch": "2025-12-01T20:33:23.975136",
        "meta_mean_motion": 14.2270998,
        "meta_eccentricity": 0.0001434,
        "meta_inclination": 98.741,
        "meta_ra_of_asc_node": 205.7876,
        "meta_arg_of_pericenter": 37.353,
        "meta_mean_anomaly": 322.7747,
        "meta_ephemeris_type": 0,
        "meta_classification_type": "U",
        "meta_norad_cat_id": 61735,
        "meta_element_set_no": 999,
        "meta_rev_at_epoch": 9964,
        "meta_bstar": 5.6241e-05,
        "meta_mean_motion_dot": 8.2e-07,
        "meta_mean_motion_ddot": 0,
        "tle_line1": "1 61735U 24199A   25335.85652749  .00000082  00000+0  56241-4 0  9992",
        "tle_line2": "2 61735  98.7410 205.7876 0001434  37.3530 322.7747 14.22709980 99643"
      },
      "geometry": {
        "type": "Point",
        "coordinates": [
          -144.62289590703418,
          -46.03915804395568
        ]
      }
    },
    {
      "type": "Feature",
      "properties": {
        "norad_id": 61736,
        "name": "IONOSFERA-M 2",
        "group": "resource",
        "lat": 43.33488409550694,
        "lon": 34.45605743985627,
        "alt_km": 811.6090396085801,
        "timestamp": "2025-12-02T06:27:52.679076+00:00",
        "meta_object_name": "IONOSFERA-M 2",
        "meta_object_id": "2024-199B",
        "meta_epoch": "2025-12-01T21:23:18.644928",
        "meta_mean_motion": 14.22712098,
        "meta_eccentricity": 0.0001329,
        "meta_inclination": 98.7408,
        "meta_ra_of_asc_node": 205.7346,
        "meta_arg_of_pericenter": 123.5859,
        "meta_mean_anomaly": 236.5446,
        "meta_ephemeris_type": 0,
        "meta_classification_type": "U",
        "meta_norad_cat_id": 61736,
        "meta_element_set_no": 999,
        "meta_rev_at_epoch": 10277,
        "meta_bstar": 5.5708e-05,
        "meta_mean_motion_dot": 8.1e-07,
        "meta_mean_motion_ddot": 0,
        "tle_line1": "1 61736U 24199B   25335.89118802  .00000081  00000+0  55708-4 0  9990",
        "tle_line2": "2 61736  98.7408 205.7346 0001329 123.5859 236.5446 14.22712098102779"
      },
      "geometry": {
        "type": "Point",
        "coordinates": [
          34.45605743985627,
          43.33488409550694
        ]
      }
    }
  ]
}